TIANMU-1 20             
1 58661U 23208B   26179.94457542  .00007733  00000+0  24550-3 0  9994
2 58661  97.4459 296.9531 0005554 282.1743  77.8877 15.32935726139221
TIANMU-1 21             
1 58662U 23208C   26179.91511405  .00008792  00000+0  25892-3 0  9997
2 58662  97.4517 299.6551 0005677 271.9305  88.1288 15.35279031139364
TIANMU-1 22             
1 58663U 23208D   26179.96702942  .00006759  00000+0  22674-3 0  9997
2 58663  97.4513 296.2541 0002306 309.5398  50.5639 15.31216955139139
TIANMU-1 15             
1 58700U 24004A   26179.95981052  .00005114  00000+0  19679-3 0  9999
2 58700  97.4663   6.1514 0005605 302.5976  57.4721 15.26827380137573
TIANMU-1 16             
1 58701U 24004B   26179.95030490  .00005027  00000+0  19329-3 0  9996
2 58701  97.4611   5.3675 0004722 322.4608  37.6301 15.26864241137579
TIANMU-1 17             
1 58702U 24004C   26179.93576769  .00005162  00000+0  19840-3 0  9997
2 58702  97.4638   5.8422 0004386 330.5676  29.5315 15.26862787137562
TIANMU-1 18             
1 58703U 24004D   26179.97650770  .00004969  00000+0  19157-3 0  9992
2 58703  97.4655   6.1439 0003554 306.5488  53.5423 15.26782434137572
INSAT-3DS               
1 58990U 24033A   26179.96314558 -.00000144  00000+0  00000+0 0  9997
2 58990   0.0655  98.8926 0001502 348.8521 258.1003  1.00270127 47189
METEOR-M2 4             
1 59051U 24039A   26179.93054891  .00000007  00000+0  22722-4 0  9997
2 59051  98.7015 139.0812 0007877 129.5928 230.5947 14.22430693120930
GOES 19                 
1 60133U 24119A   26179.93194978 -.00000237  00000+0  00000+0 0  9996
2 60133   0.0252 130.5669 0000486  10.6521  36.1121  1.00272859  7080
MTG-S1                  
1 64723U 25143A   26179.94675973  .00000004  00000+0  00000+0 0  9994
2 64723   0.5940 341.4285 0002749 267.3096   8.6673  1.00272158  3531
METOP-SGA1              
1 65159U 25172A   26179.69698343  .00000038  00000+0  38354-4 0  9993
2 65159  98.6641 239.1808 0008009  20.6446 339.5052 14.19816725 45428
FENGYUN 3H              
1 65815U 25219A   26179.80890789  .00000044  00000+0  41078-4 0  9999
2 65815  98.6769 120.3521 0001475  68.5537 291.5797 14.19922345 39032
