OBJECT_NAME,OBJECT_ID,EPOCH,MEAN_MOTION,ECCENTRICITY,INCLINATION,RA_OF_ASC_NODE,ARG_OF_PERICENTER,MEAN_ANOMALY,EPHEMERIS_TYPE,CLASSIFICATION_TYPE,NORAD_CAT_ID,ELEMENT_SET_NO,REV_AT_EPOCH,BSTAR,MEAN_MOTION_DOT,MEAN_MOTION_DDOT
TIANMU-1 20,2023-208B,2026-06-28T22:40:11.316288,15.32935726,.00055545,97.4459,296.9531,282.1743,77.8877,0,U,58661,999,13922,.24549594E-3,.7733E-4,0
TIANMU-1 21,2023-208C,2026-06-28T21:57:45.853920,15.35279031,.00056777,97.4517,299.6551,271.9305,88.1288,0,U,58662,999,13936,.25891574E-3,.8792E-4,0
TIANMU-1 22,2023-208D,2026-06-28T23:12:31.341888,15.31216955,.00023065,97.4513,296.2541,309.5398,50.5639,0,U,58663,999,13913,.22674269E-3,.6759E-4,0
TIANMU-1 15,2024-004A,2026-06-28T23:02:07.628928,15.26827380,.00056058,97.4663,6.1514,302.5976,57.4721,0,U,58700,999,13757,.19679025E-3,.5114E-4,0
TIANMU-1 16,2024-004B,2026-06-28T22:48:26.343360,15.26864241,.0004722,97.4611,5.3675,322.4608,37.6301,0,U,58701,999,13757,.19329112E-3,.5027E-4,0
TIANMU-1 17,2024-004C,2026-06-28T22:27:30.328416,15.26862787,.00043864,97.4638,5.8422,330.5676,29.5315,0,U,58702,999,13756,.19840087E-3,.5162E-4,0
TIANMU-1 18,2024-004D,2026-06-28T23:26:10.265280,15.26782434,.00035542,97.4655,6.1439,306.5488,53.5423,0,U,58703,999,13757,.19157032E-3,.4969E-4,0
INSAT-3DS,2024-033A,2026-06-28T23:06:55.778112,1.00270127,.00015026,0.0655,98.8926,348.8521,258.1003,0,U,58990,999,4718,0,-.144E-5,0
METEOR-M2 4,2024-039A,2026-06-28T22:19:59.425824,14.22430693,.00078771,98.7015,139.0812,129.5928,230.5947,0,U,59051,999,12093,.22721758E-4,.7E-7,0
GOES 19,2024-119A,2026-06-28T22:22:00.460992,1.00272859,.00004869,0.0252,130.5669,10.6521,36.1121,0,U,60133,999,708,0,-.237E-5,0
MTG-S1,2025-143A,2026-06-28T22:43:20.040672,1.00272158,.00027493,0.5940,341.4285,267.3096,8.6673,0,U,64723,999,353,0,.4E-7,0
METOP-SGA1,2025-172A,2026-06-28T16:43:39.368352,14.19816725,.00080097,98.6641,239.1808,20.6446,339.5052,0,U,65159,999,4542,.38353591E-4,.38E-6,0
FENGYUN 3H,2025-219A,2026-06-28T19:24:49.641696,14.19922345,.00014755,98.6769,120.3521,68.5537,291.5797,0,U,65815,999,3903,.41078229E-4,.44E-6,0
